0 JCSAT 12
1 35755U 09044A   13281.87698638 -.00000357  00000-0  10000-3 0  7765
2 35755 000.0635 026.4013 0000480 164.2708 270.6490 01.00270436 15194
0 JCSAT 12
1 35755U 09044A   13283.69709951 -.00000363  00000-0  10000-3 0  7776
2 35755 000.0658 027.2891 0000485 167.1180 203.9372 01.00269600 15215
0 JCSAT 12
1 35755U 09044A   13283.69709951 -.00000363  00000-0  10000-3 0  7787
2 35755 000.0450 022.7633 0001101 134.7775 240.8116 01.00269655 15211
0 JCSAT 12
1 35755U 09044A   13283.69933578  .00000000  00000-0  10000-3 0  7777
2 35755 000.0587 036.9041 0002244 101.9346 260.3040 01.00264481994177
0 JCSAT 12
1 35755U 09044A   13285.39683274 -.00000368  00000-0  10000-3 0  7791
2 35755 000.0479 024.7382 0001140 145.0265 122.1767 01.00272458 15227
0 JCSAT 12
1 35755U 09044A   13286.48509155 -.00000370  00000-0  10000-3 0  7802
2 35755 000.0499 026.4781 0001148 151.6283 146.6817 01.00272017 15231
0 JCSAT 12
1 35755U 09044A   13287.49772575 -.00000370  00000-0  10000-3 0  7813
2 35755 000.0518 026.9851 0001154 150.8963 152.4527 01.00271525 15246
0 JCSAT 12
1 35755U 09044A   13287.77809735 -.00000370  00000-0  10000-3 0  7824
2 35755 000.0515 031.1569 0001147 154.1561 246.2297 01.00271387 15253
0 JCSAT 12
1 35755U 09044A   13290.49064704 -.00000367  00000-0  10000-3 0  7833
2 35755 000.0571 032.8814 0001175 153.1384 144.7038 01.00270108 15276
0 JCSAT 12
1 35755U 09044A   13291.72972193 -.00000364  00000-0  10000-3 0  7848
2 35755 000.0577 045.6936 0001187 143.3762 228.9495 01.00272919 15299
0 JCSAT 12
1 35755U 09044A   13293.58472631 -.00000361  00000-0  10000-3 0  7854
2 35755 000.0615 047.0918 0001179 148.4264 172.1339 01.00272041 15318
0 JCSAT 12
1 35755U 09044A   13295.77158959 -.00000357  00000-0  10000-3 0  7867
2 35755 000.0652 046.7193 0001211 130.0812 260.2810 01.00271177 15337
